1 45683U 20035AC  23165.11968528  .00001253  00000-0  10296-3 0  9995
2 45683  53.0539 223.8641 0001106  85.5398 274.5718 15.06401163168214
1 45683U 20035AC  23165.11968528  .00001253  00000-0  10296-3 0  9995
2 45683  53.0539 223.8641 0001106  85.5398 274.5718 15.06401163167808
1 45683U 20035AC  23165.84950192  .00000287  00000-0  38154-4 0  9993
2 45683  53.0541 220.5855 0001197  81.0107 279.1018 15.06399334168329
1 45683U 20035AC  23166.38027295  .00001450  00000-0  11622-3 0  9995
2 45683  53.0532 218.2029 0000951  90.3900 269.7198 15.06404771168402
1 45683U 20035AC  23166.38027295  .00001450  00000-0  11622-3 0  9995
2 45683  53.0532 218.2029 0000951  90.3900 269.7198 15.06404771167995
1 45683U 20035AC  23167.11009325  .00002081  00000-0  15854-3 0  9993
2 45683  53.0523 214.9291 0000930  90.3093 269.8002 15.06395878168105
1 45683U 20035AC  23167.44182615  .00002502  00000-0  18680-3 0  9991
2 45683  53.0536 213.4395 0000890  93.9698 266.1393 15.06400126168569
1 45683U 20035AC  23167.83990386  .00003034  00000-0  22245-3 0  9999
2 45683  53.0529 211.6537 0000969  91.5839 268.5261 15.06406984168622
1 45683U 20035AC  23167.83990386  .00003034  00000-0  22245-3 0  9999
2 45683  53.0529 211.6537 0000969  91.5839 268.5261 15.06406984168217
1 45683U 20035AC  23168.37067171  .00004705  00000-0  33440-3 0  9991
2 45683  53.0527 209.2701 0000937  91.2802 268.8294 15.06415123168701
1 45683U 20035AC  23168.43701778  .00005052  00000-0  35763-3 0  9992
2 45683  53.0528 208.9725 0000958  92.5911 267.5188 15.06416305168714
1 45683U 20035AC  23169.10049377  .00000289  00000-0  38270-4 0  9991
2 45683  53.0527 205.9937 0000991  88.5774 271.5329 15.06397657168400
1 45683U 20035AC  23169.36588319 -.00001925  00000-0 -11041-3 0  9999
2 45683  53.0532 204.8025 0001137  78.1178 281.9938 15.06392984168856
1 45683U 20035AC  23169.83031518 -.00001155  00000-0 -58681-4 0  9992
2 45683  53.0524 202.7172 0001026  84.2377 275.8729 15.06390781168924
1 45683U 20035AC  23170.09570382 -.00000590  00000-0 -20751-4 0  9998
2 45683  53.0523 201.5257 0001041  84.0201 276.0907 15.06391426168552
1 45683U 20035AC  23170.36109241  .00000720  00000-0  67199-4 0  9990
2 45683  53.0519 200.3343 0001036  82.7462 277.3644 15.06392505169000
1 45683U 20035AC  23171.35630108  .00003740  00000-0  26984-3 0  9992
2 45683  53.0520 195.8663 0001143  85.3284 274.7835 15.06394324169155
1 45683U 20035AC  23171.35630108  .00003740  00000-0  26984-3 0  9992
2 45683  53.0520 195.8663 0001143  85.3284 274.7835 15.06394324168749
1 45683U 20035AC  23172.35150084  .00003349  00000-0  24361-3 0  9995
2 45683  53.0525 191.3989 0001178  85.3473 274.7650 15.06403325169304
1 45683U 20035AC  23172.74958245  .00001742  00000-0  13581-3 0  9990
2 45683  53.0524 189.6114 0001191  84.4997 275.6128 15.06400356168950
1 45683U 20035AC  23174.07651709  .00001587  00000-0  12537-3 0  9990
2 45683  53.0529 183.6544 0001185  86.3754 273.7371 15.06404171169152
1 45683U 20035AC  23175.00537586  .00001263  00000-0  10368-3 0  9991
2 45683  53.0538 179.4849 0001137  88.5178 271.5942 15.06398402169298
1 45683U 20035AC  23176.13326429  .00001209  00000-0  10001-3 0  9992
2 45683  53.0539 174.4214 0001189  87.3912 272.7213 15.06407692169465
1 45683U 20035AC  23177.12847443  .00000322  00000-0  40536-4 0  9998
2 45683  53.0532 169.9531 0001210  89.1947 270.9181 15.06394995169614
1 45683U 20035AC  23178.25636377  .00000411  00000-0  46493-4 0  9992
2 45683  53.0540 164.8906 0001211  89.1873 270.9255 15.06404165169783
1 45683U 20035AC  23178.65445004 -.00000639  00000-0 -23998-4 0  9990
2 45683  53.0538 163.1041 0001138  85.7759 274.3359 15.06398361169845
1 45683U 20035AC  23179.11888559  .00000154  00000-0  29207-4 0  9997
2 45683  53.0541 161.0194 0001187  91.0813 269.0312 15.06387780169911
1 45683U 20035AC  23179.64965772  .00000619  00000-0  60471-4 0  9992
2 45683  53.0541 158.6367 0001197  91.7159 268.3967 15.06393896169997
1 45683U 20035AC  23180.31312012  .00000764  00000-0  70158-4 0  9995
2 45683  53.0540 155.6584 0001204  94.2093 265.9034 15.06402676170096
1 45683U 20035AC  23181.90544549  .00000861  00000-0  76675-4 0  9991
2 45683  53.0541 148.5096 0001271  91.9551 268.1583 15.06403729170334
1 45683U 20035AC  23182.70161352 -.00000174  00000-0  72151-5 0  9991
2 45683  53.0539 144.9355 0001294  92.4450 267.6687 15.06393735170455
1 45683U 20035AC  23183.09970145 -.00000395  00000-0 -76204-5 0  9991
2 45683  53.0536 143.1472 0001421  98.4022 261.7128 15.06387145170516
1 45683U 20035AC  23184.09489874 -.00000296  00000-0 -97390-6 0  9996
2 45683  53.0544 138.6812 0001317  84.4948 275.6191 15.06401016170662
1 45683U 20035AC  23185.09011386  .00001214  00000-0  10039-3 0  9997
2 45683  53.0545 134.2140 0001367  82.6544 277.4600 15.06383974170810
1 45683U 20035AC  23186.01895405  .00001541  00000-0  12228-3 0  9997
2 45683  53.0556 130.0445 0001417  94.4299 265.6852 15.06411047170954
1 45683U 20035AC  23186.54973815  .00000743  00000-0  68776-4 0  9990
2 45683  53.0553 127.6619 0001642  84.6862 275.4315 15.06398173171030
1 45683U 20035AC  23187.54494512  .00000284  00000-0  37944-4 0  9996
2 45683  53.0553 123.1938 0001289  93.2795 266.8342 15.06395721171189
1 45683U 20035AC  23188.07571022  .00000635  00000-0  61511-4 0  9994
2 45683  53.0544 120.8103 0001213  91.9905 268.1222 15.06405106171262
1 45683U 20035AC  23189.07092426 -.00000206  00000-0  50764-5 0  9995
2 45683  53.0547 116.3443 0001389  84.3071 275.8077 15.06389757171419
1 45683U 20035AC  23189.60169390  .00006099  00000-0  42792-3 0  9994
2 45683  53.0542 113.9613 0001359  96.9742 263.1401 15.06407309171490
1 45683U 20035AC  23190.19880621  .00014960  00000-0  10202-2 0  9993
2 45683  53.0535 111.2800 0001348 101.2180 258.8961 15.06431885171583
1 45683U 20035AC  23190.79593476 -.00000637  00000-0 -23885-4 0  9999
2 45683  53.0536 108.5990 0001725  97.6963 262.4222 15.06399511171679
1 45683U 20035AC  23191.06132620 -.00000801  00000-0 -34908-4 0  9991
2 45683  53.0538 107.4071 0001233  84.7721 275.3409 15.06386565171712
1 45683U 20035AC  23192.05653408  .00017518  00000-0  11917-2 0  9997
2 45683  53.0536 102.9403 0001224  89.8158 270.2971 15.06409338171867
1 45683U 20035AC  23193.11808910  .00010897  00000-0  74920-3 0  9992
2 45683  53.0535  98.1754 0001357  86.1400 273.9744 15.06404021172029
1 45683U 20035AC  23193.98058535  .00018920  00000-0  12844-2 0  9998
2 45683  53.0536  94.3030 0001379  88.9741 271.1406 15.06435971172154
1 45683U 20035AC  23194.97580186  .00021838  00000-0  14806-2 0  9992
2 45683  53.0539  89.8362 0001808  65.1961 294.9216 15.06395294172304
1 45683U 20035AC  23195.24119357  .00022154  00000-0  15024-2 0  9996
2 45683  53.0539  88.6443 0001567  70.1060 290.0098 15.06378220172348
1 45683U 20035AC  23196.70082542  .00003185  00000-0  23262-3 0  9990
2 45683  53.0549  82.0918 0001223  49.7159 310.3937 15.06396050172567
1 45683U 20035AC  23197.76237198  .00014663  00000-0  10008-2 0  9992
2 45683  53.0548  77.3266 0001402  87.6738 272.4411 15.06416911172724
1 45683U 20035AC  23198.49218145 -.00001377  00000-0 -73559-4 0  9996
2 45683  53.0544  74.0514 0001390  97.5501 262.5646 15.06406391172837
1 45683U 20035AC  23199.42103316  .00021557  00000-0  14607-2 0  9990
2 45683  53.0541  69.8823 0001051  95.2220 264.8889 15.06424943172978
1 45683U 20035AC  23200.41622208  .00000593  00000-0  58663-4 0  9997
2 45683  53.0567  65.4127 0000706 193.9101 166.1868 15.06412807173120
1 45683U 20035AC  23200.74796942  .00004918  00000-0  34883-3 0  9992
2 45683  53.0536  63.9241 0000540  91.5495 268.5555 15.06396146173173
1 45683U 20035AC  23201.67684790  .00022001  00000-0  14919-2 0  9992
2 45683  53.0537  59.7538 0000910  70.5257 289.5830 15.06384293173315
1 45683U 20035AC  23202.40666688  .00013936  00000-0  95262-3 0  9998
2 45683  53.0537  56.4775 0000990  64.5074 295.6017 15.06399130173423
1 45683U 20035AC  23205.59130895  .00011456  00000-0  78672-3 0  9998
2 45683  53.0543  42.1795 0001172  86.3311 273.7812 15.06400634174314
1 45683U 20035AC  23206.52016454  .00002899  00000-0  21343-3 0  9990
2 45683  53.0543  38.0103 0001308  89.0989 271.0150 15.06398939174458
1 45683U 20035AC  23207.51536649  .00018220  00000-0  12383-2 0  9991
2 45683  53.0546  33.5421 0000993 107.7456 252.3641 15.06417474174600
1 45683U 20035AC  23207.58171201  .00020490  00000-0  13896-2 0  9999
2 45683  53.0548  33.2454 0001028 100.1475 259.9630 15.06423406174617
1 45683U 20035AC  23207.58171201  .00020490  00000-0  13896-2 0  9999
2 45683  53.0548  33.2454 0001028 100.1475 259.9630 15.06423406174202
1 45683U 20035AC  23208.24517927  .00006540  00000-0  45735-3 0  9990
2 45683  53.0542  30.2667 0001565  73.5260 286.5900 15.06413243174710
1 45683U 20035AC  23208.24517927  .00006540  00000-0  45735-3 0  9990
2 45683  53.0542  30.2667 0001565  73.5260 286.5900 15.06413243174305
1 45683U 20035AC  23208.64326613 -.00005497  00000-0 -35060-3 0  9996
2 45683  53.0547  28.4793 0001022  92.9343 267.1763 15.06384464174364
1 45683U 20035AC  23208.90865888  .00004035  00000-0  28976-3 0  9990
2 45683  53.0547  27.2884 0001205  85.6595 274.4531 15.06377851174819
1 45683U 20035AC  23209.50578678  .00017886  00000-0  12167-2 0  9997
2 45683  53.0549  24.6083 0001063  63.7518 296.3580 15.06395829174909
1 45683U 20035AC  23209.57213352  .00018053  00000-0  12278-2 0  9999
2 45683  53.0550  24.3106 0001077  64.4328 295.6772 15.06398664174507
1 45683U 20035AC  23210.76637632  .00006426  00000-0  44983-3 0  9993
2 45683  53.0551  18.9493 0001021  75.4509 284.6593 15.06404986174681
1 45683U 20035AC  23211.29714299  .00009943  00000-0  68504-3 0  9999
2 45683  53.0550  16.5662 0001001  75.7637 284.3464 15.06421112174768
1 45683U 20035AC  23211.76155778  .00016169  00000-0  11006-2 0  9994
2 45683  53.0548  14.4816 0000976  73.0560 287.0536 15.06444403174835
1 45683U 20035AC  23212.42502814  .00000721  00000-0  67282-4 0  9991
2 45683  53.0547  11.5028 0002022  80.8664 279.2554 15.06413012174938
